SKYSAT-A                
1 39418U 13066C   24165.43212827  .00003649  00000+0  25915-3 0  9994
2 39418  97.4870 225.8185 0023841 320.4445  39.5041 15.05101346577785
SKYSAT-B                
1 40072U 14037D   24165.47041055  .00001520  00000+0  18929-3 0  9991
2 40072  98.3334  77.0814 0007213 126.5903 233.5975 14.84070131536974
SKYSAT-C1               
1 41601U 16040C   24165.43889519  .00011490  00000+0  39557-3 0  9994
2 41601  97.0616 226.0310 0004538  74.1255 286.0487 15.30182623445572
SKYSAT-C4               
1 41771U 16058B   24165.39213643  .00013735  00000+0  39786-3 0  9993
2 41771  97.0094 213.0972 0002029  82.3543 277.7932 15.35671207432635
SKYSAT-C5               
1 41772U 16058C   24165.61363495  .00013292  00000+0  37367-3 0  9991
2 41772  97.1579 220.9600 0012753 102.7959 257.4711 15.36542433431147
SKYSAT-C2               
1 41773U 16058D   24165.55521491  .00010397  00000+0  35813-3 0  9994
2 41773  97.0118 212.0913 0004637  85.3082 274.8690 15.30189481432560
SKYSAT-C3               
1 41774U 16058E   24165.56477641  .00016388  00000+0  40388-3 0  9992
2 41774  97.0110 219.6762 0003904 169.6774 190.4554 15.40625647433088
SKYSAT-C11              
1 42987U 17068A   24165.60495376  .00017044  00000+0  43454-3 0  9998
2 42987  97.3579 291.9107 0001974 329.7469  30.3663 15.39597143370099
SKYSAT-C10              
1 42988U 17068B   24165.61155243  .00012355  00000+0  40743-3 0  9994
2 42988  97.3661 291.6123 0003124 240.6511 119.4419 15.31578136370041
SKYSAT-C9               
1 42989U 17068C   24165.60558234  .00012429  00000+0  39460-3 0  9997
2 42989  97.3588 290.0841 0015777 342.3050  17.7641 15.32681711370238
SKYSAT-C8               
1 42990U 17068D   24165.32111131  .00012451  00000+0  43072-3 0  9998
2 42990  97.3689 290.8925 0005872 141.8766 218.2891 15.30013160369951
SKYSAT-C7               
1 42991U 17068E   24165.61599689  .00011965  00000+0  41212-3 0  9992
2 42991  97.3687 291.5874 0008130  85.7464 274.4705 15.30149586370022
SKYSAT-C6               
1 42992U 17068F   24165.31116615  .00013962  00000+0  46270-3 0  9992
2 42992  97.3716 292.2969 0003425 155.7922 204.3481 15.31389034370015
SKYSAT-C12              
1 43797U 18099AR  24165.56730044  .00011768  00000+0  37974-3 0  9999
2 43797  97.0197 214.4035 0003403 133.9596 226.1928 15.32274989309091
SKYSAT-C13              
1 43802U 18099AW  24165.58235562  .00015787  00000+0  39382-3 0  9993
2 43802  97.0449 219.9202 0000697 345.5746  14.5481 15.40271688308896
SKYSAT-C14              
1 45788U 20038BL  24165.37458404  .00107488  00000+0  75779-3 0  9993
2 45788  52.9717  45.4929 0005588  65.7477 294.4123 15.73261546227770
SKYSAT-C16              
1 45789U 20038BM  24165.35303192  .00076121  00000+0  70590-3 0  9990
2 45789  52.9736  38.3290 0004374  15.6410 344.4738 15.66810174227864
SKYSAT-C15              
1 45790U 20038BN  24165.41448233  .00064660  00000+0  68993-3 0  9994
2 45790  52.9740  57.3034 0002852  12.5295 347.5788 15.63352431227609
FLOCK 4V-11             
1 46285U 20061P   24165.25404678  .00026759  00000+0  60395-3 0  9992
2 46285  97.3541 238.6092 0004273 190.1477 169.9686 15.43184545209344
FLOCK 4V-14             
1 46286U 20061Q   24165.26622970  .00032746  00000+0  70383-3 0  9992
2 46286  97.3541 238.9331 0003524 207.8368 152.2692 15.44599900209367
FLOCK 4V-8              
1 46288U 20061S   24165.58257872  .00024703  00000+0  55514-3 0  9997
2 46288  97.3555 239.0761 0003452 206.0198 154.0877 15.43332337209313
FLOCK 4V-10             
1 46296U 20061AA  24165.16550098  .00032479  00000+0  71182-3 0  9994
2 46296  97.3554 239.0059 0002467 179.4401 180.6850 15.44027140209316
FLOCK 4V-13             
1 46297U 20061AB  24165.17473663  .00033904  00000+0  76776-3 0  9996
2 46297  97.3534 238.7975 0002043 168.1186 192.0111 15.43044455209283
FLOCK 4V-20             
1 46612U 20061BJ  24165.15862387  .00020053  00000+0  45682-3 0  9993
2 46612  97.3171 239.9263 0004153  85.8885 274.2837 15.42963600204003
FLOCK 4S-21             
1 47456U 21006AV  24165.14070675  .00049429  00000+0  81143-3 0  9990
2 47456  97.3307 230.8161 0007171 201.9846 158.1100 15.52246020188385
FLOCK 4S-11             
1 47462U 21006BB  24165.11682921  .00025934  00000+0  88137-3 0  9992
2 47462  97.3351 217.5769 0004403 264.7738  95.3001 15.30438816187539
FLOCK 4S-33             
1 47469U 21006BJ  24165.22755551  .00041041  00000+0  73653-3 0  9995
2 47469  97.3244 229.3290 0003999 196.2547 163.8576 15.49788827188341
FLOCK 4S-12             
1 47471U 21006BL  24165.42774418  .00049797  00000+0  80926-3 0  9990
2 47471  97.3251 230.4123 0005770 210.4873 149.6046 15.52537022188404
FLOCK 4S-13             
1 47472U 21006BM  24165.53239424  .00066855  00000+0  94896-3 0  9991
2 47472  97.3230 231.6533 0005781 200.7347 159.3674 15.56191987188472
FLOCK 4S-34             
1 47477U 21006BS  24165.12597631  .00041501  00000+0  71893-3 0  9991
2 47477  97.3298 230.1861 0005365 210.6335 149.4605 15.50783327188343
FLOCK 4S-9              
1 47478U 21006BT  24165.44148814  .00026155  00000+0  50197-3 0  9994
2 47478  97.3290 229.2675 0004636 207.4822 152.6184 15.47950109188363
FLOCK 4S-39             
1 47490U 21006CF  24165.15752683  .00047003  00000+0  79015-3 0  9996
2 47490  97.3349 231.2815 0004546 202.7530 157.3522 15.51608086188373
FLOCK 4S-4              
1 47491U 21006CG  24165.14240375  .00117141  00000+0  16726-2 0  9996
2 47491  97.3205 229.0679 0008454 210.6534 149.4227 15.55823409188367
FLOCK 4S-17             
1 47492U 21006CH  24165.15779681  .00043916  00000+0  74635-3 0  9997
2 47492  97.3444 231.5714 0005073 193.7423 166.3692 15.51313148188378
FLOCK 4S-27             
1 47495U 21006CL  24165.61856859  .00032969  00000+0  65378-3 0  9994
2 47495  97.3192 227.4016 0005921 218.9659 141.1165 15.46949216188295
FLOCK 4S-18             
1 47496U 21006CM  24165.42855304  .00037097  00000+0  66454-3 0  9991
2 47496  97.3363 231.1037 0006619 205.3322 154.7606 15.49846710188392
FLOCK 4S-19             
1 47500U 21006CR  24165.13732162  .00037766  00000+0  67593-3 0  9999
2 47500  97.3332 230.7636 0006815 205.9078 154.1834 15.49866810188352
FLOCK 4S-28             
1 47514U 21006DE  24165.12132703  .00035570  00000+0  64231-3 0  9995
2 47514  97.3254 228.7961 0004531 202.3234 157.7821 15.49639648189292
FLOCK 4S-5              
1 47515U 21006DF  24165.15475626  .00041975  00000+0  73534-3 0  9995
2 47515  97.3258 229.0936 0005872 200.5153 159.5864 15.50459985188362
FLOCK 4S-6              
1 47518U 21006DJ  24165.45714405  .00035981  00000+0  62090-3 0  9997
2 47518  97.3283 229.5972 0005278 217.4477 142.6407 15.50923000189376
FLOCK 4S-37             
1 47522U 21006DN  24165.59721013  .00041261  00000+0  71099-3 0  9997
2 47522  97.3360 230.9972 0004560 216.8002 143.2937 15.50938957189386
FLOCK 4S-10             
1 47523U 21006DP  24165.43751749  .00045515  00000+0  79006-3 0  9992
2 47523  97.3314 229.7963 0003976 231.8521 128.2373 15.50713331188388
FLOCK 4S-7              
1 47527U 21006DT  24165.44934640  .00042375  00000+0  74827-3 0  9997
2 47527  97.3224 229.1853 0004610 200.2418 159.8652 15.50240125189348
FLOCK 4S-14             
1 47528U 21006DU  24165.43723264  .00053775  00000+0  79843-3 0  9994
2 47528  97.3329 231.1278 0005513 183.3710 176.7508 15.55019793189368
FLOCK 4S-36             
1 47530U 21006DW  24165.62137367  .00053924  00000+0  87687-3 0  9992
2 47530  97.3349 231.0206 0006206 222.2623 137.8152 15.52498003189386
FLOCK 4S-24             
1 47539U 21006DZ  24165.62328576  .00041578  00000+0  71357-3 0  9994
2 47539  97.3258 230.2228 0006911 198.6122 161.4879 15.51036404188438
FLOCK 4S-20             
1 47540U 21006EA  24165.43568240  .00038291  00000+0  69533-3 0  9990
2 47540  97.3352 230.8448 0006233 200.7840 159.3158 15.49454442187465
FLOCK 4S-25             
1 47542U 21006EC  24165.62379168  .00050471  00000+0  78178-3 0  9991
2 47542  97.3163 230.2201 0006025 204.1724 155.9248 15.53865659187537
FLOCK 4S-30             
1 47544U 21006EE  24165.44165607  .00041488  00000+0  74031-3 0  9996
2 47544  97.3264 229.4178 0004959 204.2713 155.8305 15.49944939189345
FLOCK 4S-42             
1 47612U 21006EQ  24165.61968718  .00039199  00000+0  69525-3 0  9993
2 47612  97.3319 230.7058 0006403 214.0974 145.9867 15.50120306188425
FLOCK 4S-48             
1 47617U 21006EJ  24165.14289404  .00038595  00000+0  73194-3 0  9990
2 47617  97.3349 230.1509 0007500 196.5113 163.5895 15.48197783189323
FLOCK 4S-46             
1 47684U 21006EK  24165.53204963  .00029462  00000+0  50934-3 0  9994
2 47684  97.3407 230.9775 0004554 196.8877 163.2224 15.50913869188439
FLOCK 4S-47             
1 47685U 21006EL  24165.46044016  .00035308  00000+0  62988-3 0  9996
2 47685  97.3265 229.6956 0005108 207.0056 153.0930 15.49984213189350
FLOCK 4S-44             
1 47686U 21006EM  24165.44793768  .00042084  00000+0  74457-3 0  9993
2 47686  97.3305 230.7336 0007518 212.3270 147.7522 15.50167079188402
FLOCK 4S-43             
1 47687U 21006EN  24165.42475306  .00043842  00000+0  76074-3 0  9997
2 47687  97.3249 229.7874 0003975 214.7630 145.3363 15.50731651189348
FLOCK 4S-45             
1 47688U 21006EP  24165.14229351  .00045464  00000+0  79642-3 0  9990
2 47688  97.3263 229.6514 0006894 196.0257 164.0778 15.50437298189297
FLOCK 4S-41             
1 47698U 21006ER  24165.43843494  .00038445  00000+0  69388-3 0  9990
2 47698  97.3405 231.1510 0005803 203.1181 156.9810 15.49631315188385
FLOCK 4X-8              
1 50992U 22002J   24165.26314660  .00033874  00000+0  65947-3 0  9995
2 50992  97.3928 241.4580 0004175  36.4734 323.6800 15.47488828134413
FLOCK 4X-44             
1 50994U 22002L   24165.18588063  .00078441  00000+0  14200-2 0  9992
2 50994  97.3901 241.6805 0003083   8.8464 351.2841 15.49378833134416
FLOCK 4X-2              
1 50996U 22002N   24165.47525749  .00030796  00000+0  59680-3 0  9991
2 50996  97.3913 241.6866 0003785  36.9454 323.2056 15.47641868134447
